HIMAWARI-8              
1 40267U 14060A   23325.68117344 -.00000271  00000+0  00000+0 0  9998
2 40267   0.0113 103.5889 0000503 165.6702 177.0703  1.00271512 33454
